[{"OBJECT_NAME":"SRMSAT","OBJECT_ID":"2011-058D","EPOCH":"2026-03-09T21:52:00.886368","MEAN_MOTION":14.11547804,"ECCENTRICITY":0.00117783,"INCLINATION":19.9724,"RA_OF_ASC_NODE":300.3652,"ARG_OF_PERICENTER":191.4566,"MEAN_ANOMALY":283.6478,"EPHEMERIS_TYPE":0,"CLASSIFICATION_TYPE":"U","NORAD_CAT_ID":37841,"ELEMENT_SET_NO":999,"REV_AT_EPOCH":74377,"BSTAR":0.00012150267,"MEAN_MOTION_DOT":4.89e-6,"MEAN_MOTION_DDOT":0},{"OBJECT_NAME":"FENGYUN 1C DEB","OBJECT_ID":"1999-025ADH","EPOCH":"2026-03-09T15:32:16.649088","MEAN_MOTION":13.95860801,"ECCENTRICITY":0.0088754,"INCLINATION":99.4246,"RA_OF_ASC_NODE":103.9392,"ARG_OF_PERICENTER":225.5588,"MEAN_ANOMALY":254.9466,"EPHEMERIS_TYPE":0,"CLASSIFICATION_TYPE":"U","NORAD_CAT_ID":30394,"ELEMENT_SET_NO":999,"REV_AT_EPOCH":97316,"BSTAR":0.00011127,"MEAN_MOTION_DOT":1.1e-6,"MEAN_MOTION_DDOT":0}]
